{
  "type": "FeatureCollection",
  "features": [
    {
      "type": "Feature",
      "properties": {
        "norad_id": 37238,
        "name": "INTELSAT 17 (IS-17)",
        "group": "intelsat",
        "lat": 0.0040733927114362635,
        "lon": 127.83112297945006,
        "alt_km": 35793.65609340514,
        "timestamp": "2025-12-11T22:43:46.939655+00:00",
        "meta_object_name": "INTELSAT 17 (IS-17)",
        "meta_object_id": "2010-065B",
        "meta_epoch": "2025-12-11T13:49:28.263648",
        "meta_mean_motion": 1.0027114,
        "meta_eccentricity": 0.000251,
        "meta_inclination": 0.0102,
        "meta_ra_of_asc_node": 303.071,
        "meta_arg_of_pericenter": 319.0071,
        "meta_mean_anomaly": 91.8358,
        "meta_ephemeris_type": 0,
        "meta_classification_type": "U",
        "meta_norad_cat_id": 37238,
        "meta_element_set_no": 999,
        "meta_rev_at_epoch": 5136,
        "meta_bstar": 0,
        "meta_mean_motion_dot": 6e-08,
        "meta_mean_motion_ddot": 0,
        "tle_line1": "1 37238U 10065B   25345.57602157  .00000006  00000+0  00000+0 0  9991",
        "tle_line2": "2 37238   0.0102 303.0710 0002510 319.0071  91.8358  1.00271140 51366"
      },
      "geometry": {
        "type": "Point",
        "coordinates": [
          127.83112297945006,
          0.0040733927114362635
        ]
      }
    },
    {
      "type": "Feature",
      "properties": {
        "norad_id": 37392,
        "name": "INTELSAT 28 (IS-28)",
        "group": "intelsat",
        "lat": -1.0674245469536148,
        "lon": 30.191572655575538,
        "alt_km": 35795.48903561923,
        "timestamp": "2025-12-11T22:43:46.939667+00:00",
        "meta_object_name": "INTELSAT 28 (IS-28)",
        "meta_object_id": "2011-016A",
        "meta_epoch": "2025-12-11T08:13:30.156096",
        "meta_mean_motion": 1.00272023,
        "meta_eccentricity": 0.00038929,
        "meta_inclination": 1.3213,
        "meta_ra_of_asc_node": 85.0725,
        "meta_arg_of_pericenter": 180.836,
        "meta_mean_anomaly": 266.0763,
        "meta_ephemeris_type": 0,
        "meta_classification_type": "U",
        "meta_norad_cat_id": 37392,
        "meta_element_set_no": 999,
        "meta_rev_at_epoch": 5140,
        "meta_bstar": 0,
        "meta_mean_motion_dot": -2.18e-06,
        "meta_mean_motion_ddot": 0,
        "tle_line1": "1 37392U 11016A   25345.34271014 -.00000218  00000+0  00000+0 0  9994",
        "tle_line2": "2 37392   1.3213  85.0725 0003892 180.8360 266.0763  1.00272023 51408"
      },
      "geometry": {
        "type": "Point",
        "coordinates": [
          30.191572655575538,
          -1.0674245469536148
        ]
      }
    },
    {
      "type": "Feature",
      "properties": {
        "norad_id": 37834,
        "name": "INTELSAT 18 (IS-18)",
        "group": "intelsat",
        "lat": -0.02617330918233452,
        "lon": -118.17527576953289,
        "alt_km": 35778.963632574465,
        "timestamp": "2025-12-11T22:43:46.939680+00:00",
        "meta_object_name": "INTELSAT 18 (IS-18)",
        "meta_object_id": "2011-056A",
        "meta_epoch": "2025-12-11T14:22:02.643744",
        "meta_mean_motion": 1.00271361,
        "meta_eccentricity": 0.00019177,
        "meta_inclination": 0.0144,
        "meta_ra_of_asc_node": 296.0641,
        "meta_arg_of_pericenter": 333.0333,
        "meta_mean_anomaly": 206.9647,
        "meta_ephemeris_type": 0,
        "meta_classification_type": "U",
        "meta_norad_cat_id": 37834,
        "meta_element_set_no": 999,
        "meta_rev_at_epoch": 5193,
        "meta_bstar": 0,
        "meta_mean_motion_dot": 6e-07,
        "meta_mean_motion_ddot": 0,
        "tle_line1": "1 37834U 11056A   25345.59864171  .00000060  00000+0  00000+0 0  9992",
        "tle_line2": "2 37834   0.0144 296.0641 0001917 333.0333 206.9647  1.00271361 51933"
      },
      "geometry": {
        "type": "Point",
        "coordinates": [
          -118.17527576953289,
          -0.02617330918233452
        ]
      }
    },
    {
      "type": "Feature",
      "properties": {
        "norad_id": 38098,
        "name": "INTELSAT 22 (IS-22)",
        "group": "intelsat",
        "lat": 0.01080011110043907,
        "lon": 133.9485153310449,
        "alt_km": 35791.37539080211,
        "timestamp": "2025-12-11T22:43:46.939693+00:00",
        "meta_object_name": "INTELSAT 22 (IS-22)",
        "meta_object_id": "2012-011A",
        "meta_epoch": "2025-12-11T13:51:13.097088",
        "meta_mean_motion": 1.00271195,
        "meta_eccentricity": 0.00017306,
        "meta_inclination": 0.002,
        "meta_ra_of_asc_node": 0.2192,
        "meta_arg_of_pericenter": 268.3205,
        "meta_mean_anomaly": 91.923,
        "meta_ephemeris_type": 0,
        "meta_classification_type": "U",
        "meta_norad_cat_id": 38098,
        "meta_element_set_no": 999,
        "meta_rev_at_epoch": 530,
        "meta_bstar": 0,
        "meta_mean_motion_dot": -5.1e-07,
        "meta_mean_motion_ddot": 0,
        "tle_line1": "1 38098U 12011A   25345.57723492 -.00000051  00000+0  00000+0 0  9996",
        "tle_line2": "2 38098   0.0020   0.2192 0001730 268.3205  91.9230  1.00271195  5301"
      },
      "geometry": {
        "type": "Point",
        "coordinates": [
          133.9485153310449,
          0.01080011110043907
        ]
      }
    },
    {
      "type": "Feature",
      "properties": {
        "norad_id": 38356,
        "name": "INTELSAT 19 (IS-19)",
        "group": "intelsat",
        "lat": -0.024966663175391837,
        "lon": -132.1760286457193,
        "alt_km": 35774.97771281981,
        "timestamp": "2025-12-11T22:43:46.939705+00:00",
        "meta_object_name": "INTELSAT 19 (IS-19)",
        "meta_object_id": "2012-030A",
        "meta_epoch": "2025-12-11T14:18:03.027168",
        "meta_mean_motion": 1.00272216,
        "meta_eccentricity": 0.00034477,
        "meta_inclination": 0.009,
        "meta_ra_of_asc_node": 344.6079,
        "meta_arg_of_pericenter": 284.4617,
        "meta_mean_anomaly": 192.0056,
        "meta_ephemeris_type": 0,
        "meta_classification_type": "U",
        "meta_norad_cat_id": 38356,
        "meta_element_set_no": 999,
        "meta_rev_at_epoch": 4857,
        "meta_bstar": 0,
        "meta_mean_motion_dot": -4.9e-07,
        "meta_mean_motion_ddot": 0,
        "tle_line1": "1 38356U 12030A   25345.59586837 -.00000049  00000+0  00000+0 0  9993",
        "tle_line2": "2 38356   0.0090 344.6079 0003447 284.4617 192.0056  1.00272216 48577"
      },
      "geometry": {
        "type": "Point",
        "coordinates": [
          -132.1760286457193,
          -0.024966663175391837
        ]
      }
    },
    {
      "type": "Feature",
      "properties": {
        "norad_id": 38740,
        "name": "INTELSAT 20 (IS-20)",
        "group": "intelsat",
        "lat": 0.0013937672780098092,
        "lon": 130.32517985288382,
        "alt_km": 35779.26347709178,
        "timestamp": "2025-12-11T22:43:46.939718+00:00",
        "meta_object_name": "INTELSAT 20 (IS-20)",
        "meta_object_id": "2012-043A",
        "meta_epoch": "2025-12-11T02:03:38.556288",
        "meta_mean_motion": 1.00271347,
        "meta_eccentricity": 0.00027974,
        "meta_inclination": 0.0063,
        "meta_ra_of_asc_node": 85.143,
        "meta_arg_of_pericenter": 99.0256,
        "meta_mean_anomaly": 355.3044,
        "meta_ephemeris_type": 0,
        "meta_classification_type": "U",
        "meta_norad_cat_id": 38740,
        "meta_element_set_no": 999,
        "meta_rev_at_epoch": 4886,
        "meta_bstar": 0,
        "meta_mean_motion_dot": -1.9e-07,
        "meta_mean_motion_ddot": 0,
        "tle_line1": "1 38740U 12043A   25345.08586292 -.00000019  00000+0  00000+0 0  9990",
        "tle_line2": "2 38740   0.0063  85.1430 0002797  99.0256 355.3044  1.00271347 48865"
      },
      "geometry": {
        "type": "Point",
        "coordinates": [
          130.32517985288382,
          0.0013937672780098092
        ]
      }
    },
    {
      "type": "Feature",
      "properties": {
        "norad_id": 38749,
        "name": "INTELSAT 21 (IS-21)",
        "group": "intelsat",
        "lat": -0.008640965777932868,
        "lon": 3.853235396354099,
        "alt_km": 35788.89925562074,
        "timestamp": "2025-12-11T22:43:46.939731+00:00",
        "meta_object_name": "INTELSAT 21 (IS-21)",
        "meta_object_id": "2012-045A",
        "meta_epoch": "2025-12-11T04:40:28.057152",
        "meta_mean_motion": 1.00269962,
        "meta_eccentricity": 0.00020675,
        "meta_inclination": 0.0204,
        "meta_ra_of_asc_node": 58.4062,
        "meta_arg_of_pericenter": 200.7387,
        "meta_mean_anomaly": 193.1251,
        "meta_ephemeris_type": 0,
        "meta_classification_type": "U",
        "meta_norad_cat_id": 38749,
        "meta_element_set_no": 999,
        "meta_rev_at_epoch": 4864,
        "meta_bstar": 0,
        "meta_mean_motion_dot": -2.79e-06,
        "meta_mean_motion_ddot": 0,
        "tle_line1": "1 38749U 12045A   25345.19476918 -.00000279  00000+0  00000+0 0  9994",
        "tle_line2": "2 38749   0.0204  58.4062 0002067 200.7387 193.1251  1.00269962 48645"
      },
      "geometry": {
        "type": "Point",
        "coordinates": [
          3.853235396354099,
          -0.008640965777932868
        ]
      }
    }
  ]
}